[{"OBJECT_NAME":"STARLINK-5527","OBJECT_ID":"2023-064BB","EPOCH":"2026-03-09T11:25:41.329920","MEAN_MOTION":14.98325687,"ECCENTRICITY":0.00031283,"INCLINATION":69.9995,"RA_OF_ASC_NODE":104.8725,"ARG_OF_PERICENTER":269.9984,"MEAN_ANOMALY":90.0817,"EPHEMERIS_TYPE":0,"CLASSIFICATION_TYPE":"U","NORAD_CAT_ID":56497,"ELEMENT_SET_NO":999,"REV_AT_EPOCH":15620,"BSTAR":9.8055974e-5,"MEAN_MOTION_DOT":1.077e-5,"MEAN_MOTION_DDOT":0},{"OBJECT_NAME":"CZ-6A DEB","OBJECT_ID":"2024-140NJ","EPOCH":"2026-03-09T15:30:01.982592","MEAN_MOTION":15.1004937,"ECCENTRICITY":0.00567225,"INCLINATION":88.9288,"RA_OF_ASC_NODE":275.3548,"ARG_OF_PERICENTER":176.1403,"MEAN_ANOMALY":184.0287,"EPHEMERIS_TYPE":0,"CLASSIFICATION_TYPE":"U","NORAD_CAT_ID":61092,"ELEMENT_SET_NO":999,"REV_AT_EPOCH":8278,"BSTAR":0.0051635532,"MEAN_MOTION_DOT":0.00088127,"MEAN_MOTION_DDOT":0}]
